[{"OBJECT_NAME":"FLOCK 4H-7","OBJECT_ID":"2025-276AW","EPOCH":"2026-03-09T22:43:30.994464","MEAN_MOTION":15.18760022,"ECCENTRICITY":0.00028609,"INCLINATION":97.4252,"RA_OF_ASC_NODE":144.168,"ARG_OF_PERICENTER":46.1134,"MEAN_ANOMALY":314.0336,"EPHEMERIS_TYPE":0,"CLASSIFICATION_TYPE":"U","NORAD_CAT_ID":66710,"ELEMENT_SET_NO":999,"REV_AT_EPOCH":1535,"BSTAR":0.00044917791,"MEAN_MOTION_DOT":9.273e-5,"MEAN_MOTION_DDOT":0},{"OBJECT_NAME":"NAHLA","OBJECT_ID":"2025-276DC","EPOCH":"2026-03-09T17:58:03.160416","MEAN_MOTION":15.18321471,"ECCENTRICITY":0.00019909,"INCLINATION":97.4271,"RA_OF_ASC_NODE":143.9992,"ARG_OF_PERICENTER":353.62,"MEAN_ANOMALY":6.5008,"EPHEMERIS_TYPE":0,"CLASSIFICATION_TYPE":"U","NORAD_CAT_ID":66764,"ELEMENT_SET_NO":999,"REV_AT_EPOCH":1532,"BSTAR":0.00020881065,"MEAN_MOTION_DOT":4.218e-5,"MEAN_MOTION_DDOT":0}]
